OBJECT_NAME,OBJECT_ID,EPOCH,MEAN_MOTION,ECCENTRICITY,INCLINATION,RA_OF_ASC_NODE,ARG_OF_PERICENTER,MEAN_ANOMALY,EPHEMERIS_TYPE,CLASSIFICATION_TYPE,NORAD_CAT_ID,ELEMENT_SET_NO,REV_AT_EPOCH,BSTAR,MEAN_MOTION_DOT,MEAN_MOTION_DDOT
STARLINK-37511,2026-133E,2026-06-28T14:00:01.000224,15.80857601,.00011394,53.1588,264.9131,67.7578,173.5394,0,U,69512,999,369,.17703856E-3,.34357E-3,0
STARLINK-37552,2026-133F,2026-06-28T14:00:01.000224,15.77875243,.00009367,53.1591,264.8731,74.7534,185.8754,0,U,69513,999,369,-.14650741E-1,-.2203704E-1,0
STARLINK-37607,2026-133G,2026-06-28T14:00:01.000224,15.80886863,.00011573,53.1590,264.8518,77.6499,193.0903,0,U,69514,999,369,-.17839787E-3,-.35786E-3,0
STARLINK-37232,2026-133H,2026-06-28T14:00:01.000224,15.80931133,.00002672,53.1588,264.8061,87.4821,205.2777,0,U,69515,999,369,-.43004485E-3,-.84965E-3,0
STARLINK-37323,2026-133J,2026-06-28T14:00:01.000224,15.80891385,.00011399,53.1591,264.7991,85.2910,210.6645,0,U,69516,999,369,-.17288022E-3,-.34712E-3,0
STARLINK-37357,2026-133K,2026-06-28T14:00:01.000224,15.76188782,.00008637,53.1595,264.7886,59.6636,241.2576,0,U,69517,999,369,-.16032564E-1,-.2231114E-1,0
STARLINK-37408,2026-133L,2026-06-28T14:00:01.000224,15.80878455,.00009371,53.1590,264.7571,73.3005,242.7546,0,U,69518,999,369,-.23090179E-4,-.5254E-4,0
STARLINK-37570,2026-133M,2026-06-28T14:00:01.000224,15.79593907,.00007457,53.1594,264.6976,76.2695,268.3204,0,U,69519,999,369,-.13506831E-1,-.2198311E-1,0
STARLINK-37510,2026-133N,2026-06-28T14:00:01.000224,15.81318293,.00005138,53.1592,264.7311,51.7871,276.8788,0,U,69520,999,369,-.11287719E-1,-.1973706E-1,0
STARLINK-37586,2026-133P,2026-06-28T14:00:01.000224,15.80876505,.00013069,53.1589,264.6179,74.2357,308.8247,0,U,69521,999,369,-.29560358E-4,-.653E-4,0
STARLINK-37379,2026-133Q,2026-06-28T14:00:01.000224,15.80882411,.00011678,53.1594,264.6278,75.0077,303.1912,0,U,69522,999,374,-.25921396E-4,-.5814E-4,0
STARLINK-37429,2026-133R,2026-06-28T14:00:01.000224,15.76316545,.00010302,53.1593,264.6242,54.3115,325.4661,0,U,69523,999,374,-.15320971E-1,-.2155586E-1,0
STARLINK-37352,2026-133S,2026-06-28T14:00:01.000224,15.80911348,.00013182,53.1589,264.5757,60.5662,342.5015,0,U,69524,999,374,-.25587143E-3,-.50993E-3,0
STARLINK-37490,2026-133T,2026-06-28T14:00:01.000224,15.80886188,.00010973,53.1591,264.4788,87.7634,1.8217,0,U,69525,999,374,-.9860891E-4,-.20127E-3,0
STARLINK-37438,2026-133U,2026-06-28T14:00:01.000224,15.81377804,.00011771,53.1591,264.5497,92.0222,323.8318,0,U,69526,999,374,-.87354374E-2,-.1550492E-1,0
STARLINK-37484,2026-133V,2026-06-28T14:00:01.000224,15.80884226,.00010514,53.1592,264.4632,82.4153,14.7384,0,U,69527,999,374,-.12487067E-3,-.25285E-3,0
STARLINK-37523,2026-133W,2026-06-28T14:00:01.000224,15.80883696,.00011333,53.1588,264.4619,87.3870,10.4354,0,U,69528,999,374,-.18432757E-3,-.36942E-3,0
STARLINK-37369,2026-133X,2026-06-28T14:00:01.000224,15.80880330,.00006926,53.1588,264.4369,61.4862,47.9210,0,U,69529,999,374,-.76967046E-4,-.15865E-3,0
STARLINK-37670,2026-133Y,2026-06-28T14:00:01.000224,15.79755787,.00016075,53.1593,264.3946,58.7851,71.3713,0,U,69530,999,374,-.14133561E-1,-.2302367E-1,0
STARLINK-37897,2026-133Z,2026-06-28T14:00:01.000224,15.80864979,.00011789,53.1593,264.3595,71.0491,75.5823,0,U,69531,999,370,.13769698E-3,.26551E-3,0
STARLINK-37933,2026-133AA,2026-06-28T14:00:01.000224,15.80872769,.00012651,53.1594,264.3116,67.2521,102.2218,0,U,69532,999,370,.22645635E-4,.3772E-4,0
STARLINK-37890,2026-133AB,2026-06-28T14:00:01.000224,15.80863342,.00014293,53.1586,264.2592,81.6970,113.0760,0,U,69533,999,370,.1842078E-3,.35792E-3,0
STARLINK-37407,2026-133AC,2026-06-28T14:00:01.000224,15.80872990,.00012563,53.1584,264.2160,73.5588,141.5754,0,U,69534,999,374,.19274942E-3,.37509E-3,0
STARLINK-37888,2026-133AD,2026-06-28T14:00:01.000224,15.80860029,.00011676,53.1575,264.1424,78.4002,172.3255,0,U,69535,999,370,-.10016852E-4,-.2674E-4,0
STARLINK-37889,2026-133AE,2026-06-28T14:00:01.000224,15.78412931,.00008419,53.1596,264.6700,65.6451,293.5725,0,U,69536,999,369,-.1452798E-1,-.2234506E-1,0
2026-134A,2026-134A,2026-06-28T14:12:29.167200,15.09314293,.0014585,97.7018,249.7388,228.3360,131.6621,0,U,69538,999,203,.30077941E-3,.4742E-4,0
2026-134B,2026-134B,2026-06-28T15:45:56.336256,15.09471564,.00146888,97.6993,249.8033,230.7316,129.2610,0,U,69539,999,203,.29586405E-3,.4683E-4,0
2026-134C,2026-134C,2026-06-28T15:45:32.254848,15.09503377,.00141048,97.6999,249.8046,231.9648,128.0308,0,U,69540,999,203,.29751913E-3,.4713E-4,0
2026-134D,2026-134D,2026-06-28T15:44:47.958432,15.09560667,.00151662,97.7038,249.8115,231.7076,128.2790,0,U,69541,999,203,.29807757E-3,.4731E-4,0
