STARLINK-37511          
1 69512U 26133E   26179.58334491  .00034357  00000+0  17704-3 0  9993
2 69512  53.1588 264.9131 0001139  67.7578 173.5394 15.80857601  3696
STARLINK-37552          
1 69513U 26133F   26179.58334491 -.02203704  00000+0 -14651-1 0  9998
2 69513  53.1591 264.8731 0000936  74.7534 185.8754 15.77875243  3694
STARLINK-37607          
1 69514U 26133G   26179.58334491 -.00035786  00000+0 -17840-3 0  9995
2 69514  53.1590 264.8518 0001157  77.6499 193.0903 15.80886863  3696
STARLINK-37232          
1 69515U 26133H   26179.58334491 -.00084965  00000+0 -43004-3 0  9990
2 69515  53.1588 264.8061 0000267  87.4821 205.2777 15.80931133  3692
STARLINK-37323          
1 69516U 26133J   26179.58334491 -.00034712  00000+0 -17288-3 0  9991
2 69516  53.1591 264.7991 0001139  85.2910 210.6645 15.80891385  3690
STARLINK-37357          
1 69517U 26133K   26179.58334491 -.02231114  00000+0 -16033-1 0  9994
2 69517  53.1595 264.7886 0000863  59.6636 241.2576 15.76188782  3699
STARLINK-37408          
1 69518U 26133L   26179.58334491 -.00005254  00000+0 -23090-4 0  9991
2 69518  53.1590 264.7571 0000937  73.3005 242.7546 15.80878455  3692
STARLINK-37570          
1 69519U 26133M   26179.58334491 -.02198311  00000+0 -13507-1 0  9990
2 69519  53.1594 264.6976 0000745  76.2695 268.3204 15.79593907  3698
STARLINK-37510          
1 69520U 26133N   26179.58334491 -.01973706  00000+0 -11288-1 0  9994
2 69520  53.1592 264.7311 0000513  51.7871 276.8788 15.81318293  3696
STARLINK-37586          
1 69521U 26133P   26179.58334491 -.00006530  00000+0 -29560-4 0  9991
2 69521  53.1589 264.6179 0001306  74.2357 308.8247 15.80876505  3694
STARLINK-37379          
1 69522U 26133Q   26179.58334491 -.00005814  00000+0 -25921-4 0  9993
2 69522  53.1594 264.6278 0001167  75.0077 303.1912 15.80882411  3740
STARLINK-37429          
1 69523U 26133R   26179.58334491 -.02155586  00000+0 -15321-1 0  9998
2 69523  53.1593 264.6242 0001030  54.3115 325.4661 15.76316545  3746
STARLINK-37352          
1 69524U 26133S   26179.58334491 -.00050993  00000+0 -25587-3 0  9990
2 69524  53.1589 264.5757 0001318  60.5662 342.5015 15.80911348  3747
STARLINK-37490          
1 69525U 26133T   26179.58334491 -.00020127  00000+0 -98609-4 0  9993
2 69525  53.1591 264.4788 0001097  87.7634   1.8217 15.80886188  3740
STARLINK-37438          
1 69526U 26133U   26179.58334491 -.01550492  00000+0 -87354-2 0  9991
2 69526  53.1591 264.5497 0001177  92.0222 323.8318 15.81377804  3740
STARLINK-37484          
1 69527U 26133V   26179.58334491 -.00025285  00000+0 -12487-3 0  9994
2 69527  53.1592 264.4632 0001051  82.4153  14.7384 15.80884226  3748
STARLINK-37523          
1 69528U 26133W   26179.58334491 -.00036942  00000+0 -18433-3 0  9994
2 69528  53.1588 264.4619 0001133  87.3870  10.4354 15.80883696  3740
STARLINK-37369          
1 69529U 26133X   26179.58334491 -.00015865  00000+0 -76967-4 0  9993
2 69529  53.1588 264.4369 0000692  61.4862  47.9210 15.80880330  3744
STARLINK-37670          
1 69530U 26133Y   26179.58334491 -.02302367  00000+0 -14134-1 0  9998
2 69530  53.1593 264.3946 0001607  58.7851  71.3713 15.79755787  3740
STARLINK-37897          
1 69531U 26133Z   26179.58334491  .00026551  00000+0  13770-3 0  9990
2 69531  53.1593 264.3595 0001178  71.0491  75.5823 15.80864979  3702
STARLINK-37933          
1 69532U 26133AA  26179.58334491  .00003772  00000+0  22646-4 0  9994
2 69532  53.1594 264.3116 0001265  67.2521 102.2218 15.80872769  3703
STARLINK-37890          
1 69533U 26133AB  26179.58334491  .00035792  00000+0  18421-3 0  9997
2 69533  53.1586 264.2592 0001429  81.6970 113.0760 15.80863342  3701
STARLINK-37407          
1 69534U 26133AC  26179.58334491  .00037509  00000+0  19275-3 0  9994
2 69534  53.1584 264.2160 0001256  73.5588 141.5754 15.80872990  3746
STARLINK-37888          
1 69535U 26133AD  26179.58334491 -.00002674  00000+0 -10017-4 0  9998
2 69535  53.1575 264.1424 0001167  78.4002 172.3255 15.80860029  3709
STARLINK-37889          
1 69536U 26133AE  26179.58334491 -.02234506  00000+0 -14528-1 0  9990
2 69536  53.1596 264.6700 0000841  65.6451 293.5725 15.78412931  3697
2026-134A               
1 69538U 26134A   26179.59200425  .00004742  00000+0  30078-3 0  9996
2 69538  97.7018 249.7388 0014585 228.3360 131.6621 15.09314293  2035
2026-134B               
1 69539U 26134B   26179.65690204  .00004683  00000+0  29586-3 0  9998
2 69539  97.6993 249.8033 0014688 230.7316 129.2610 15.09471564  2033
2026-134C               
1 69540U 26134C   26179.65662332  .00004713  00000+0  29752-3 0  9990
2 69540  97.6999 249.8046 0014104 231.9648 128.0308 15.09503377  2038
2026-134D               
1 69541U 26134D   26179.65611063  .00004731  00000+0  29808-3 0  9998
2 69541  97.7038 249.8115 0015166 231.7076 128.2790 15.09560667  2035
